ASRTU-1
1 99130U 24099A   24334.56971065  .00005552  00000-0  23249-3 0 00004
2 99130 097.3805 198.9796 0018077 150.5091 012.6031 15.23458563000015
